COSMOS 2433 (720)       
1 32275C 07052A   21225.99979167 -.00000000  00000-0  00000-0 0  2255
2 32275  66.0710  14.8760 0002563 190.3966   2.0214  2.13103982    16
COSMOS 2432 (719)       
1 32276C 07052B   21225.99979167 -.00000000  00000-0  00000-0 0  2256
2 32276  66.0840  14.9718 0007635 335.6644 165.9007  2.13103198    15
COSMOS 2434 (721)       
1 32393C 07065A   21225.99979167  .00000000  00000-0  00000-0 0  2259
2 32393  64.4480 251.9373 0000958 169.5433 271.4393  2.13102951    15
COSMOS 2436 (723)       
1 32395C 07065C   21225.99979167  .00000000  00000-0  00000-0 0  2251
2 32395  64.4569 251.9914 0014127 349.5923 227.4671  2.13102778    10
COSMOS 2456 (730)       
1 36111C 09070A   21225.99979167  .00000000  00000-0  00000-0 0  2259
2 36111  64.2836 131.6100 0003765 321.9346 288.8384  2.13099122    15
COSMOS 2457 (733)       
1 36112C 09070B   21225.99979167  .00000000  00000-0  00000-0 0  2250
2 36112  64.2665 131.4933 0004927 161.7693 213.8450  2.13101352    15
COSMOS 2459 (731)       
1 36400C 10007A   21225.99979167 -.00000000  00000-0  00000-0 0  2253
2 36400  65.9622  13.7571 0018753  13.7426  36.5391  2.13103450    13
COSMOS 2460 (732)       
1 36402C 10007C   21225.99979167 -.00000000  00000-0  00000-0 0  2255
2 36402  65.9492  13.7129 0002587 124.7328 230.9269  2.13106289    18
COSMOS 2464 (736)       
1 37139C 10041C   21225.99979167  .00000000  00000-0  00000-0 0  2250
2 37139  64.0474 251.1657 0026581   5.2445 296.2247  2.13100484    15
COSMOS 2476 (744)       
1 37867C 11064A   21225.99979167  .00000000  00000-0  00000-0 0  2254
2 37867  64.5776 132.8458 0020374 236.7948 276.8138  2.13101734    12
COSMOS 2477 (745)       
1 37868C 11064B   21225.99979167  .00000000  00000-0  00000-0 0  2255
2 37868  64.5855 132.9070 0017749 238.1030  93.8022  2.13101561    19
COSMOS 2475 (743)       
1 37869C 11064C   21225.99979167  .00000000  00000-0  00000-0 0  2256
2 37869  64.5928 132.9123 0021819 258.0156  31.6434  2.13101900    17
COSMOS 2485 (747)       
1 39155C 13019A   21225.99979167  .00000000  00000-0  00000-0 0  2258
2 39155  64.7433 133.2073 0020892 232.4919 325.5849  2.13101835    13
COSMOS 2492 (754)       
1 39620C 14012A   21225.99979167 -.00000000  00000-0  00000-0 0  2250
2 39620  65.8372  13.4371 0010692 328.2195 264.6073  2.13103034    16
COSMOS 2500 (755)       
1 40001C 14032A   21225.99979167 -.00000000  00000-0  00000-0 0  2257
2 40001  65.7773  13.3212 0007319 184.0496 268.2791  2.13102214    18
COSMOS 2501 (702)       
1 40315C 14075A   21225.99979167  .00000000  00000-0  00000-0 0  2251
2 40315  63.7585 251.9515 0018854 213.3129  45.6130  2.13101190    12
COSMOS 2514 (751)       
1 41330C 16008A   21225.99979167 -.00000000  00000-0  00000-0 0  2258
2 41330  65.5788  13.0892 0010373 199.3455  76.2220  2.13102682    10
COSMOS 2516 (753)       
1 41554C 16032A   21225.99979167  .00000000  00000-0  00000-0 0  2252
2 41554  64.7240 251.8693 0008779 248.6197 282.4820  2.13102901    12
COSMOS 2522 (752)       
1 42939C 17055A   21225.99979167  .00000000  00000-0  00000-0 0  2256
2 42939  64.2171 252.4459 0010148 246.2894 147.7132  2.13101812    15
COSMOS 2527 (756)       
1 43508C 18053A   21225.99979167  .00000000  00000-0  00000-0 0  2258
2 43508  64.9071 133.1431 0007436 230.2195 195.8945  2.13102344    19
COSMOS 2529 (757)       
1 43687C 18086A   21225.99979167  .00000000  00000-0  00000-0 0  2252
2 43687  64.4316 252.6794 0012196 265.0110  84.5617  2.13101901    13
COSMOS 2534 (758)       
1 44299C 19030A   21225.99979167  .00000000  00000-0  00000-0 0  2252
2 44299  64.5027 252.5354 0014654 282.5750 201.8039  2.13101821    12
COSMOS 2544 (759)       
1 44850C 19088A   21225.99979167  .00000000  00000-0  00000-0 0  2258
2 44850  64.8919 133.0019 0011596 262.1448 207.6766  2.13102138    12
COSMOS 2545 (760)       
1 45358C 20018A   21225.99979167 -.00000000  00000-0  00000-0 0  2258
2 45358  64.9126  13.9500 0007847 233.4391  86.3260  2.13102528    14
